[{"OBJECT_NAME":"IRIDIUM 156","OBJECT_ID":"2018-061H","EPOCH":"2026-03-09T13:23:10.368096","MEAN_MOTION":14.34217428,"ECCENTRICITY":0.0001926,"INCLINATION":86.3916,"RA_OF_ASC_NODE":98.4058,"ARG_OF_PERICENTER":95.842,"MEAN_ANOMALY":264.2995,"EPHEMERIS_TYPE":0,"CLASSIFICATION_TYPE":"U","NORAD_CAT_ID":43576,"ELEMENT_SET_NO":999,"REV_AT_EPOCH":39909,"BSTAR":-1.5896e-5,"MEAN_MOTION_DOT":-2.5e-7,"MEAN_MOTION_DDOT":0},{"OBJECT_NAME":"FENGYUN 1C DEB","OBJECT_ID":"1999-025AVT","EPOCH":"2026-03-07T03:50:09.407904","MEAN_MOTION":14.27014293,"ECCENTRICITY":0.00320672,"INCLINATION":99.8535,"RA_OF_ASC_NODE":227.7574,"ARG_OF_PERICENTER":303.1711,"MEAN_ANOMALY":56.6391,"EPHEMERIS_TYPE":0,"CLASSIFICATION_TYPE":"U","NORAD_CAT_ID":30833,"ELEMENT_SET_NO":999,"REV_AT_EPOCH":65615,"BSTAR":0.00055606859,"MEAN_MOTION_DOT":1.306e-5,"MEAN_MOTION_DDOT":0}]
